{
  "type": "FeatureCollection",
  "features": [
    {
      "type": "Feature",
      "properties": {
        "norad_id": 44333,
        "name": "AT&T T-16",
        "group": "intelsat",
        "lat": 0.03495042761248868,
        "lon": 138.6082341285277,
        "alt_km": 35783.15040685017,
        "timestamp": "2025-12-23T09:49:06.744267+00:00",
        "meta_object_name": "AT&T T-16",
        "meta_object_id": "2019-034A",
        "meta_epoch": "2025-12-22T14:23:54.836736",
        "meta_mean_motion": 1.00269155,
        "meta_eccentricity": 8.73e-05,
        "meta_inclination": 0.0184,
        "meta_ra_of_asc_node": 60.0513,
        "meta_arg_of_pericenter": 76.4959,
        "meta_mean_anomaly": 69.9777,
        "meta_ephemeris_type": 0,
        "meta_classification_type": "U",
        "meta_norad_cat_id": 44333,
        "meta_element_set_no": 999,
        "meta_rev_at_epoch": 2386,
        "meta_bstar": 0,
        "meta_mean_motion_dot": -9.3e-07,
        "meta_mean_motion_ddot": 0,
        "tle_line1": "1 44333U 19034A   25356.59994024 -.00000093  00000+0  00000+0 0  9998",
        "tle_line2": "2 44333   0.0184  60.0513 0000873  76.4959  69.9777  1.00269155 23868"
      },
      "geometry": {
        "type": "Point",
        "coordinates": [
          138.6082341285277,
          0.03495042761248868
        ]
      }
    },
    {
      "type": "Feature",
      "properties": {
        "norad_id": 44476,
        "name": "INTELSAT 39 (IS-39)",
        "group": "intelsat",
        "lat": -0.030476133119234715,
        "lon": -58.57835219526011,
        "alt_km": 35790.96227240276,
        "timestamp": "2025-12-23T09:49:06.744279+00:00",
        "meta_object_name": "INTELSAT 39 (IS-39)",
        "meta_object_id": "2019-049B",
        "meta_epoch": "2025-12-22T22:01:11.051328",
        "meta_mean_motion": 1.00270825,
        "meta_eccentricity": 0.00012046,
        "meta_inclination": 0.0187,
        "meta_ra_of_asc_node": 340.7902,
        "meta_arg_of_pericenter": 164.7349,
        "meta_mean_anomaly": 338.4327,
        "meta_ephemeris_type": 0,
        "meta_classification_type": "U",
        "meta_norad_cat_id": 44476,
        "meta_element_set_no": 999,
        "meta_rev_at_epoch": 2336,
        "meta_bstar": 0,
        "meta_mean_motion_dot": 5.5e-07,
        "meta_mean_motion_ddot": 0,
        "tle_line1": "1 44476U 19049B   25356.91748902  .00000055  00000+0  00000+0 0  9997",
        "tle_line2": "2 44476   0.0187 340.7902 0001204 164.7349 338.4327  1.00270825 23368"
      },
      "geometry": {
        "type": "Point",
        "coordinates": [
          -58.57835219526011,
          -0.030476133119234715
        ]
      }
    },
    {
      "type": "Feature",
      "properties": {
        "norad_id": 46114,
        "name": "GALAXY 30 (G-30)",
        "group": "intelsat",
        "lat": 0.04157202327179291,
        "lon": 114.46156524103777,
        "alt_km": 35794.03449554849,
        "timestamp": "2025-12-23T09:49:06.744290+00:00",
        "meta_object_name": "GALAXY 30 (G-30)",
        "meta_object_id": "2020-056C",
        "meta_epoch": "2025-12-22T14:16:55.506432",
        "meta_mean_motion": 1.00270121,
        "meta_eccentricity": 0.00020176,
        "meta_inclination": 0.0183,
        "meta_ra_of_asc_node": 9.653,
        "meta_arg_of_pericenter": 256.7413,
        "meta_mean_anomaly": 274.2401,
        "meta_ephemeris_type": 0,
        "meta_classification_type": "U",
        "meta_norad_cat_id": 46114,
        "meta_element_set_no": 999,
        "meta_rev_at_epoch": 1952,
        "meta_bstar": 0,
        "meta_mean_motion_dot": 5.8e-07,
        "meta_mean_motion_ddot": 0,
        "tle_line1": "1 46114U 20056C   25356.59508688  .00000058  00000+0  00000+0 0  9990",
        "tle_line2": "2 46114   0.0183   9.6530 0002017 256.7413 274.2401  1.00270121 19522"
      },
      "geometry": {
        "type": "Point",
        "coordinates": [
          114.46156524103777,
          0.04157202327179291
        ]
      }
    },
    {
      "type": "Feature",
      "properties": {
        "norad_id": 54026,
        "name": "GALAXY 33 (G-33)",
        "group": "intelsat",
        "lat": 0.020691152523412408,
        "lon": 106.46781507930835,
        "alt_km": 35792.277991265306,
        "timestamp": "2025-12-23T09:49:06.744302+00:00",
        "meta_object_name": "GALAXY 33 (G-33)",
        "meta_object_id": "2022-128A",
        "meta_epoch": "2025-12-22T11:35:15.906336",
        "meta_mean_motion": 1.00271669,
        "meta_eccentricity": 0.00015964,
        "meta_inclination": 0.0184,
        "meta_ra_of_asc_node": 305.6803,
        "meta_arg_of_pericenter": 318.2802,
        "meta_mean_anomaly": 228.1459,
        "meta_ephemeris_type": 0,
        "meta_classification_type": "U",
        "meta_norad_cat_id": 54026,
        "meta_element_set_no": 999,
        "meta_rev_at_epoch": 1197,
        "meta_bstar": 0,
        "meta_mean_motion_dot": 1.01e-06,
        "meta_mean_motion_ddot": 0,
        "tle_line1": "1 54026U 22128A   25356.48282299  .00000101  00000+0  00000+0 0  9997",
        "tle_line2": "2 54026   0.0184 305.6803 0001596 318.2802 228.1459  1.00271669 11973"
      },
      "geometry": {
        "type": "Point",
        "coordinates": [
          106.46781507930835,
          0.020691152523412408
        ]
      }
    },
    {
      "type": "Feature",
      "properties": {
        "norad_id": 54027,
        "name": "GALAXY 34 (G-34)",
        "group": "intelsat",
        "lat": 0.038784307971732594,
        "lon": 110.50203490843205,
        "alt_km": 35793.349246472346,
        "timestamp": "2025-12-23T09:49:06.744313+00:00",
        "meta_object_name": "GALAXY 34 (G-34)",
        "meta_object_id": "2022-128B",
        "meta_epoch": "2025-12-22T14:15:48.113568",
        "meta_mean_motion": 1.00269244,
        "meta_eccentricity": 0.0001759,
        "meta_inclination": 0.0236,
        "meta_ra_of_asc_node": 341.2387,
        "meta_arg_of_pericenter": 281.9092,
        "meta_mean_anomaly": 273.2464,
        "meta_ephemeris_type": 0,
        "meta_classification_type": "U",
        "meta_norad_cat_id": 54027,
        "meta_element_set_no": 999,
        "meta_rev_at_epoch": 1214,
        "meta_bstar": 0,
        "meta_mean_motion_dot": 0,
        "meta_mean_motion_ddot": 0,
        "tle_line1": "1 54027U 22128B   25356.59430687  .00000000  00000+0  00000+0 0  9994",
        "tle_line2": "2 54027   0.0236 341.2387 0001759 281.9092 273.2464  1.00269244 12146"
      },
      "geometry": {
        "type": "Point",
        "coordinates": [
          110.50203490843205,
          0.038784307971732594
        ]
      }
    },
    {
      "type": "Feature",
      "properties": {
        "norad_id": 54243,
        "name": "GALAXY 31 (G-31)",
        "group": "intelsat",
        "lat": 0.00793766845269016,
        "lon": 118.46240519981906,
        "alt_km": 35791.99689018076,
        "timestamp": "2025-12-23T09:49:06.744325+00:00",
        "meta_object_name": "GALAXY 31 (G-31)",
        "meta_object_id": "2022-153A",
        "meta_epoch": "2025-12-22T14:18:02.899296",
        "meta_mean_motion": 1.00271248,
        "meta_eccentricity": 0.00014318,
        "meta_inclination": 0.0304,
        "meta_ra_of_asc_node": 247.6237,
        "meta_arg_of_pericenter": 34.2912,
        "meta_mean_anomaly": 262.9925,
        "meta_ephemeris_type": 0,
        "meta_classification_type": "U",
        "meta_norad_cat_id": 54243,
        "meta_element_set_no": 999,
        "meta_rev_at_epoch": 536,
        "meta_bstar": 0,
        "meta_mean_motion_dot": 3.5e-07,
        "meta_mean_motion_ddot": 0,
        "tle_line1": "1 54243U 22153A   25356.59586689  .00000035  00000+0  00000+0 0  9994",
        "tle_line2": "2 54243   0.0304 247.6237 0001431  34.2912 262.9925  1.00271248  5362"
      },
      "geometry": {
        "type": "Point",
        "coordinates": [
          118.46240519981906,
          0.00793766845269016
        ]
      }
    },
    {
      "type": "Feature",
      "properties": {
        "norad_id": 54244,
        "name": "GALAXY 32 (G-32)",
        "group": "intelsat",
        "lat": 0.01794309793791928,
        "lon": 148.45934904826512,
        "alt_km": 35794.81946468245,
        "timestamp": "2025-12-23T09:49:06.744337+00:00",
        "meta_object_name": "GALAXY 32 (G-32)",
        "meta_object_id": "2022-153B",
        "meta_epoch": "2025-12-22T07:35:47.616576",
        "meta_mean_motion": 1.00270236,
        "meta_eccentricity": 0.00019823,
        "meta_inclination": 0.0109,
        "meta_ra_of_asc_node": 353.9495,
        "meta_arg_of_pericenter": 325.6757,
        "meta_mean_anomaly": 154.4441,
        "meta_ephemeris_type": 0,
        "meta_classification_type": "U",
        "meta_norad_cat_id": 54244,
        "meta_element_set_no": 999,
        "meta_rev_at_epoch": 1137,
        "meta_bstar": 0,
        "meta_mean_motion_dot": -1.52e-06,
        "meta_mean_motion_ddot": 0,
        "tle_line1": "1 54244U 22153B   25356.31652334 -.00000152  00000+0  00000+0 0  9997",
        "tle_line2": "2 54244   0.0109 353.9495 0001982 325.6757 154.4441  1.00270236 11370"
      },
      "geometry": {
        "type": "Point",
        "coordinates": [
          148.45934904826512,
          0.01794309793791928
        ]
      }
    }
  ]
}